CCSDS_OMM_VERS = 2.0
CREATION_DATE  = 
ORIGINATOR     = 

OBJECT_NAME    = CZ-2C R/B
OBJECT_ID      = 2022-058K
CENTER_NAME    = EARTH
REF_FRAME      = TEME
TIME_SYSTEM    = UTC
MEAN_ELEMENT_THEORY = SGP/SGP4

EPOCH          = 2025-10-27T22:38:30.000192
MEAN_MOTION    = 15.45319848
ECCENTRICITY   = .00509429
INCLINATION    = 50.1916
RA_OF_ASC_NODE = 276.5442
ARG_OF_PERICENTER = 7.3958
MEAN_ANOMALY   = 352.7749

EPHEMERIS_TYPE = 0
CLASSIFICATION_TYPE = U
NORAD_CAT_ID   = 52794
ELEMENT_SET_NO = 999
REV_AT_EPOCH   = 18954
BSTAR          = .63565201E-3
MEAN_MOTION_DOT = .321E-3
MEAN_MOTION_DDOT = 0

CCSDS_OMM_VERS = 2.0
CREATION_DATE  = 
ORIGINATOR     = 

OBJECT_NAME    = GSLV R/B
OBJECT_ID      = 2022-138AN
CENTER_NAME    = EARTH
REF_FRAME      = TEME
TIME_SYSTEM    = UTC
MEAN_ELEMENT_THEORY = SGP/SGP4

EPOCH          = 2025-10-27T20:00:33.960096
MEAN_MOTION    = 14.95746035
ECCENTRICITY   = .00190407
INCLINATION    = 87.3854
RA_OF_ASC_NODE = 210.8337
ARG_OF_PERICENTER = 276.1530
MEAN_ANOMALY   = 83.7531

EPHEMERIS_TYPE = 0
CLASSIFICATION_TYPE = U
NORAD_CAT_ID   = 54149
ELEMENT_SET_NO = 999
REV_AT_EPOCH   = 16406
BSTAR          = .42564979E-3
MEAN_MOTION_DOT = .4785E-4
MEAN_MOTION_DDOT = 0

CCSDS_OMM_VERS = 2.0
CREATION_DATE  = 
ORIGINATOR     = 

OBJECT_NAME    = XRISM
OBJECT_ID      = 2023-137A
CENTER_NAME    = EARTH
REF_FRAME      = TEME
TIME_SYSTEM    = UTC
MEAN_ELEMENT_THEORY = SGP/SGP4

EPOCH          = 2025-10-27T16:39:51.573024
MEAN_MOTION    = 15.09612367
ECCENTRICITY   = .00081991
INCLINATION    = 31.0029
RA_OF_ASC_NODE = 62.6726
ARG_OF_PERICENTER = 141.1697
MEAN_ANOMALY   = 218.9532

EPHEMERIS_TYPE = 0
CLASSIFICATION_TYPE = U
NORAD_CAT_ID   = 57800
ELEMENT_SET_NO = 999
REV_AT_EPOCH   = 11766
BSTAR          = .40457757E-3
MEAN_MOTION_DOT = .6764E-4
MEAN_MOTION_DDOT = 0

CCSDS_OMM_VERS = 2.0
CREATION_DATE  = 
ORIGINATOR     = 

OBJECT_NAME    = ACS3
OBJECT_ID      = 2024-077B
CENTER_NAME    = EARTH
REF_FRAME      = TEME
TIME_SYSTEM    = UTC
MEAN_ELEMENT_THEORY = SGP/SGP4

EPOCH          = 2025-10-27T22:04:16.576320
MEAN_MOTION    = 13.82768589
ECCENTRICITY   = .00292845
INCLINATION    = 97.3478
RA_OF_ASC_NODE = 266.6581
ARG_OF_PERICENTER = 29.3540
MEAN_ANOMALY   = 330.9257

EPHEMERIS_TYPE = 0
CLASSIFICATION_TYPE = U
NORAD_CAT_ID   = 59588
ELEMENT_SET_NO = 999
REV_AT_EPOCH   = 7580
BSTAR          = .17257515E-1
MEAN_MOTION_DOT = .18856E-3
MEAN_MOTION_DDOT = 0

