CZ-2C R/B               
1 52794U 22058K   25300.94340278  .00032100  00000+0  63565-3 0  9994
2 52794  50.1916 276.5442 0050942   7.3958 352.7749 15.45319848189545
GSLV R/B                
1 54149U 22138AN  25300.83372639  .00004785  00000+0  42565-3 0  9998
2 54149  87.3854 210.8337 0019040 276.1530  83.7531 14.95746035164060
XRISM                   
1 57800U 23137A   25300.69434691  .00006764  00000+0  40458-3 0  9994
2 57800  31.0029  62.6726 0008199 141.1697 218.9532 15.09612367117663
ACS3                    
1 59588U 24077B   25300.91963630  .00018856  00000+0  17258-1 0  9993
2 59588  97.3478 266.6581 0029284  29.3540 330.9257 13.82768589 75803
